[{"OBJECT_NAME":"ONEWEB-0156","OBJECT_ID":"2021-025L","EPOCH":"2026-03-09T16:57:12.557376","MEAN_MOTION":13.13469981,"ECCENTRICITY":0.00018075,"INCLINATION":87.9046,"RA_OF_ASC_NODE":340.0017,"ARG_OF_PERICENTER":76.0309,"MEAN_ANOMALY":284.1021,"EPHEMERIS_TYPE":0,"CLASSIFICATION_TYPE":"U","NORAD_CAT_ID":48052,"ELEMENT_SET_NO":999,"REV_AT_EPOCH":24051,"BSTAR":-0.0006397849,"MEAN_MOTION_DOT":-2.21e-6,"MEAN_MOTION_DDOT":0},{"OBJECT_NAME":"UNKNOWN","OBJECT_ID":"","EPOCH":"2026-03-09T03:44:07.775520","MEAN_MOTION":11.13601189,"ECCENTRICITY":0.10684728,"INCLINATION":63.412,"RA_OF_ASC_NODE":42.2982,"ARG_OF_PERICENTER":300.5984,"MEAN_ANOMALY":49.3748,"EPHEMERIS_TYPE":0,"CLASSIFICATION_TYPE":"U","NORAD_CAT_ID":270189,"ELEMENT_SET_NO":999,"REV_AT_EPOCH":25530,"BSTAR":-0.00016381043,"MEAN_MOTION_DOT":-6.3e-7,"MEAN_MOTION_DDOT":0}]
